CCSDS_OMM_VERS = 2.0
CREATION_DATE  = 
ORIGINATOR     = 

OBJECT_NAME    = UNKNOWN
OBJECT_ID      = 
CENTER_NAME    = EARTH
REF_FRAME      = TEME
TIME_SYSTEM    = UTC
MEAN_ELEMENT_THEORY = SGP/SGP4

EPOCH          = 2026-03-13T19:50:22.789824
MEAN_MOTION    = 12.54997377
ECCENTRICITY   = .00678433
INCLINATION    = 101.9307
RA_OF_ASC_NODE = 296.8978
ARG_OF_PERICENTER = 245.4783
MEAN_ANOMALY   = 113.9206

EPHEMERIS_TYPE = 0
CLASSIFICATION_TYPE = U
NORAD_CAT_ID   = 270155
ELEMENT_SET_NO = 999
REV_AT_EPOCH   = 28818
BSTAR          = .22069842E-2
MEAN_MOTION_DOT = .315E-5
MEAN_MOTION_DDOT = 0

CCSDS_OMM_VERS = 2.0
CREATION_DATE  = 
ORIGINATOR     = 

OBJECT_NAME    = UNKNOWN
OBJECT_ID      = 
CENTER_NAME    = EARTH
REF_FRAME      = TEME
TIME_SYSTEM    = UTC
MEAN_ELEMENT_THEORY = SGP/SGP4

EPOCH          = 2026-03-23T01:42:18.849600
MEAN_MOTION    = 13.04399861
ECCENTRICITY   = .00257595
INCLINATION    = 90.2151
RA_OF_ASC_NODE = 16.3963
ARG_OF_PERICENTER = 38.4706
MEAN_ANOMALY   = 321.8249

EPHEMERIS_TYPE = 0
CLASSIFICATION_TYPE = U
NORAD_CAT_ID   = 270156
ELEMENT_SET_NO = 999
REV_AT_EPOCH   = 29935
BSTAR          = -.10575786E-3
MEAN_MOTION_DOT = -.26E-6
MEAN_MOTION_DDOT = 0

CCSDS_OMM_VERS = 2.0
CREATION_DATE  = 
ORIGINATOR     = 

OBJECT_NAME    = UNKNOWN
OBJECT_ID      = 
CENTER_NAME    = EARTH
REF_FRAME      = TEME
TIME_SYSTEM    = UTC
MEAN_ELEMENT_THEORY = SGP/SGP4

EPOCH          = 2026-03-17T07:19:34.552992
MEAN_MOTION    = 12.21569499
ECCENTRICITY   = .01370864
INCLINATION    = 73.9993
RA_OF_ASC_NODE = 82.5587
ARG_OF_PERICENTER = 189.9284
MEAN_ANOMALY   = 169.9037

EPHEMERIS_TYPE = 0
CLASSIFICATION_TYPE = U
NORAD_CAT_ID   = 270158
ELEMENT_SET_NO = 999
REV_AT_EPOCH   = 28122
BSTAR          = .321807E-3
MEAN_MOTION_DOT = .2E-6
MEAN_MOTION_DDOT = 0

CCSDS_OMM_VERS = 2.0
CREATION_DATE  = 
ORIGINATOR     = 

OBJECT_NAME    = UNKNOWN
OBJECT_ID      = 
CENTER_NAME    = EARTH
REF_FRAME      = TEME
TIME_SYSTEM    = UTC
MEAN_ELEMENT_THEORY = SGP/SGP4

EPOCH          = 2026-03-22T10:18:54.957600
MEAN_MOTION    = 12.81675507
ECCENTRICITY   = .02709708
INCLINATION    = 62.9627
RA_OF_ASC_NODE = 343.7970
ARG_OF_PERICENTER = 227.5057
MEAN_ANOMALY   = 130.2752

EPHEMERIS_TYPE = 0
CLASSIFICATION_TYPE = U
NORAD_CAT_ID   = 270159
ELEMENT_SET_NO = 999
REV_AT_EPOCH   = 29558
BSTAR          = -.77167434E-4
MEAN_MOTION_DOT = -.99E-6
MEAN_MOTION_DDOT = 0

CCSDS_OMM_VERS = 2.0
CREATION_DATE  = 
ORIGINATOR     = 

OBJECT_NAME    = UNKNOWN
OBJECT_ID      = 
CENTER_NAME    = EARTH
REF_FRAME      = TEME
TIME_SYSTEM    = UTC
MEAN_ELEMENT_THEORY = SGP/SGP4

EPOCH          = 2026-03-19T09:13:44.999904
MEAN_MOTION    = 12.16121988
ECCENTRICITY   = .08816202
INCLINATION    = 83.2672
RA_OF_ASC_NODE = 329.1413
ARG_OF_PERICENTER = 61.1764
MEAN_ANOMALY   = 307.4919

EPHEMERIS_TYPE = 0
CLASSIFICATION_TYPE = U
NORAD_CAT_ID   = 270160
ELEMENT_SET_NO = 999
REV_AT_EPOCH   = 27877
BSTAR          = .89833918E-2
MEAN_MOTION_DOT = .3036E-4
MEAN_MOTION_DDOT = 0

CCSDS_OMM_VERS = 2.0
CREATION_DATE  = 
ORIGINATOR     = 

OBJECT_NAME    = UNKNOWN
OBJECT_ID      = 
CENTER_NAME    = EARTH
REF_FRAME      = TEME
TIME_SYSTEM    = UTC
MEAN_ELEMENT_THEORY = SGP/SGP4

EPOCH          = 2026-03-19T05:44:07.638720
MEAN_MOTION    = 12.76618408
ECCENTRICITY   = .0055878
INCLINATION    = 101.1118
RA_OF_ASC_NODE = 63.7727
ARG_OF_PERICENTER = 67.2335
MEAN_ANOMALY   = 293.4644

EPHEMERIS_TYPE = 0
CLASSIFICATION_TYPE = U
NORAD_CAT_ID   = 270161
ELEMENT_SET_NO = 999
REV_AT_EPOCH   = 29349
BSTAR          = .17705011E-2
MEAN_MOTION_DOT = .343E-5
MEAN_MOTION_DDOT = 0

CCSDS_OMM_VERS = 2.0
CREATION_DATE  = 
ORIGINATOR     = 

OBJECT_NAME    = UNKNOWN
OBJECT_ID      = 
CENTER_NAME    = EARTH
REF_FRAME      = TEME
TIME_SYSTEM    = UTC
MEAN_ELEMENT_THEORY = SGP/SGP4

EPOCH          = 2026-03-13T23:23:41.273664
MEAN_MOTION    = 12.64631805
ECCENTRICITY   = .09246137
INCLINATION    = 28.8328
RA_OF_ASC_NODE = 185.1555
ARG_OF_PERICENTER = 199.4933
MEAN_ANOMALY   = 156.7878

EPHEMERIS_TYPE = 0
CLASSIFICATION_TYPE = U
NORAD_CAT_ID   = 270162
ELEMENT_SET_NO = 999
REV_AT_EPOCH   = 28980
BSTAR          = .14553119E-2
MEAN_MOTION_DOT = .1597E-4
MEAN_MOTION_DDOT = 0

CCSDS_OMM_VERS = 2.0
CREATION_DATE  = 
ORIGINATOR     = 

OBJECT_NAME    = UNKNOWN
OBJECT_ID      = 
CENTER_NAME    = EARTH
REF_FRAME      = TEME
TIME_SYSTEM    = UTC
MEAN_ELEMENT_THEORY = SGP/SGP4

EPOCH          = 2026-03-18T01:57:50.004000
MEAN_MOTION    = 13.00020205
ECCENTRICITY   = .00262404
INCLINATION    = 90.2484
RA_OF_ASC_NODE = 9.2273
ARG_OF_PERICENTER = 144.8275
MEAN_ANOMALY   = 215.4586

EPHEMERIS_TYPE = 0
CLASSIFICATION_TYPE = U
NORAD_CAT_ID   = 270164
ELEMENT_SET_NO = 999
REV_AT_EPOCH   = 29814
BSTAR          = .76723751E-4
MEAN_MOTION_DOT = .31E-6
MEAN_MOTION_DDOT = 0

CCSDS_OMM_VERS = 2.0
CREATION_DATE  = 
ORIGINATOR     = 

OBJECT_NAME    = UNKNOWN
OBJECT_ID      = 
CENTER_NAME    = EARTH
REF_FRAME      = TEME
TIME_SYSTEM    = UTC
MEAN_ELEMENT_THEORY = SGP/SGP4

EPOCH          = 2026-03-22T13:08:18.346848
MEAN_MOTION    = 12.95715232
ECCENTRICITY   = .0045203
INCLINATION    = 90.2483
RA_OF_ASC_NODE = 10.2726
ARG_OF_PERICENTER = 64.0998
MEAN_ANOMALY   = 296.4771

EPHEMERIS_TYPE = 0
CLASSIFICATION_TYPE = U
NORAD_CAT_ID   = 270165
ELEMENT_SET_NO = 999
REV_AT_EPOCH   = 29724
BSTAR          = .16152966E-2
MEAN_MOTION_DOT = .467E-5
MEAN_MOTION_DDOT = 0

CCSDS_OMM_VERS = 2.0
CREATION_DATE  = 
ORIGINATOR     = 

OBJECT_NAME    = UNKNOWN
OBJECT_ID      = 
CENTER_NAME    = EARTH
REF_FRAME      = TEME
TIME_SYSTEM    = UTC
MEAN_ELEMENT_THEORY = SGP/SGP4

EPOCH          = 2026-03-23T07:36:32.293152
MEAN_MOTION    = 14.31291331
ECCENTRICITY   = .00041391
INCLINATION    = 98.7448
RA_OF_ASC_NODE = 103.7460
ARG_OF_PERICENTER = 319.2560
MEAN_ANOMALY   = 40.8312

EPHEMERIS_TYPE = 0
CLASSIFICATION_TYPE = U
NORAD_CAT_ID   = 270166
ELEMENT_SET_NO = 999
REV_AT_EPOCH   = 32951
BSTAR          = .13116059E-3
MEAN_MOTION_DOT = .302E-5
MEAN_MOTION_DDOT = 0

CCSDS_OMM_VERS = 2.0
CREATION_DATE  = 
ORIGINATOR     = 

OBJECT_NAME    = UNKNOWN
OBJECT_ID      = 
CENTER_NAME    = EARTH
REF_FRAME      = TEME
TIME_SYSTEM    = UTC
MEAN_ELEMENT_THEORY = SGP/SGP4

EPOCH          = 2026-03-22T08:47:49.010208
MEAN_MOTION    = 11.48031888
ECCENTRICITY   = .06979392
INCLINATION    = 65.7391
RA_OF_ASC_NODE = 312.6510
ARG_OF_PERICENTER = 163.6790
MEAN_ANOMALY   = 198.7919

EPHEMERIS_TYPE = 0
CLASSIFICATION_TYPE = U
NORAD_CAT_ID   = 270167
ELEMENT_SET_NO = 999
REV_AT_EPOCH   = 26453
BSTAR          = .20370491E-2
MEAN_MOTION_DOT = .115E-5
MEAN_MOTION_DDOT = 0

CCSDS_OMM_VERS = 2.0
CREATION_DATE  = 
ORIGINATOR     = 

OBJECT_NAME    = UNKNOWN
OBJECT_ID      = 
CENTER_NAME    = EARTH
REF_FRAME      = TEME
TIME_SYSTEM    = UTC
MEAN_ELEMENT_THEORY = SGP/SGP4

EPOCH          = 2026-03-22T05:11:30.387552
MEAN_MOTION    = 13.43038849
ECCENTRICITY   = .02052411
INCLINATION    = 82.9993
RA_OF_ASC_NODE = 74.3689
ARG_OF_PERICENTER = 289.6150
MEAN_ANOMALY   = 68.2937

EPHEMERIS_TYPE = 0
CLASSIFICATION_TYPE = U
NORAD_CAT_ID   = 270169
ELEMENT_SET_NO = 999
REV_AT_EPOCH   = 30945
BSTAR          = .1064989E-2
MEAN_MOTION_DOT = .7E-5
MEAN_MOTION_DDOT = 0

CCSDS_OMM_VERS = 2.0
CREATION_DATE  = 
ORIGINATOR     = 

OBJECT_NAME    = UNKNOWN
OBJECT_ID      = 
CENTER_NAME    = EARTH
REF_FRAME      = TEME
TIME_SYSTEM    = UTC
MEAN_ELEMENT_THEORY = SGP/SGP4

EPOCH          = 2026-03-15T15:57:12.043872
MEAN_MOTION    = 14.41814156
ECCENTRICITY   = .00176441
INCLINATION    = 65.0053
RA_OF_ASC_NODE = 55.2718
ARG_OF_PERICENTER = 286.0431
MEAN_ANOMALY   = 73.8715

EPHEMERIS_TYPE = 0
CLASSIFICATION_TYPE = U
NORAD_CAT_ID   = 270170
ELEMENT_SET_NO = 999
REV_AT_EPOCH   = 33024
BSTAR          = .44605028E-3
MEAN_MOTION_DOT = .1361E-4
MEAN_MOTION_DDOT = 0

CCSDS_OMM_VERS = 2.0
CREATION_DATE  = 
ORIGINATOR     = 

OBJECT_NAME    = UNKNOWN
OBJECT_ID      = 
CENTER_NAME    = EARTH
REF_FRAME      = TEME
TIME_SYSTEM    = UTC
MEAN_ELEMENT_THEORY = SGP/SGP4

EPOCH          = 2026-03-19T01:24:45.847008
MEAN_MOTION    = 11.95849161
ECCENTRICITY   = .00191229
INCLINATION    = 82.4259
RA_OF_ASC_NODE = 359.5353
ARG_OF_PERICENTER = 117.0086
MEAN_ANOMALY   = 243.2921

EPHEMERIS_TYPE = 0
CLASSIFICATION_TYPE = U
NORAD_CAT_ID   = 270171
ELEMENT_SET_NO = 999
REV_AT_EPOCH   = 27486
BSTAR          = .15734455E-2
MEAN_MOTION_DOT = .129E-5
MEAN_MOTION_DDOT = 0

CCSDS_OMM_VERS = 2.0
CREATION_DATE  = 
ORIGINATOR     = 

OBJECT_NAME    = UNKNOWN
OBJECT_ID      = 
CENTER_NAME    = EARTH
REF_FRAME      = TEME
TIME_SYSTEM    = UTC
MEAN_ELEMENT_THEORY = SGP/SGP4

EPOCH          = 2026-03-22T01:23:09.754656
MEAN_MOTION    = 14.45866764
ECCENTRICITY   = .00240647
INCLINATION    = 86.3803
RA_OF_ASC_NODE = 359.0886
ARG_OF_PERICENTER = 180.9280
MEAN_ANOMALY   = 179.1882

EPHEMERIS_TYPE = 0
CLASSIFICATION_TYPE = U
NORAD_CAT_ID   = 270172
ELEMENT_SET_NO = 999
REV_AT_EPOCH   = 33170
BSTAR          = .41550139E-3
MEAN_MOTION_DOT = .15E-4
MEAN_MOTION_DDOT = 0

CCSDS_OMM_VERS = 2.0
CREATION_DATE  = 
ORIGINATOR     = 

OBJECT_NAME    = UNKNOWN
OBJECT_ID      = 
CENTER_NAME    = EARTH
REF_FRAME      = TEME
TIME_SYSTEM    = UTC
MEAN_ELEMENT_THEORY = SGP/SGP4

EPOCH          = 2026-03-23T02:05:15.573120
MEAN_MOTION    = 14.85854384
ECCENTRICITY   = .0003503
INCLINATION    = 86.6096
RA_OF_ASC_NODE = 23.0954
ARG_OF_PERICENTER = 80.7994
MEAN_ANOMALY   = 279.3627

EPHEMERIS_TYPE = 0
CLASSIFICATION_TYPE = U
NORAD_CAT_ID   = 270173
ELEMENT_SET_NO = 999
REV_AT_EPOCH   = 33895
BSTAR          = .55830291E-3
MEAN_MOTION_DOT = .4886E-4
MEAN_MOTION_DDOT = 0

